{"type": "FeatureCollection", "features": [ {"type": "Feature", "properties": {"norad_id": 67056, "name": "STARLINK-36143", "group": "last-30-days", "lat": -29.729253032166877, "lon": -3.6597912405326487, "alt_km": 300.8889700380223, "timestamp": "2025-12-19T20:42:58.816277+00:00", "meta": {"OBJECT_NAME": "STARLINK-36143", "OBJECT_ID": "2025-294AC", "EPOCH": "2025-12-19T06:00:02.000160", "MEAN_MOTION": 15.93011475, "ECCENTRICITY": 0.00019222, "INCLINATION": 43, "RA_OF_ASC_NODE": 142.3593, "ARG_OF_PERICENTER": 257.2556, "MEAN_ANOMALY": 50.9123, "EPHEMERIS_TYPE": 0, "CLASSIFICATION_TYPE": "U", "NORAD_CAT_ID": 67056, "ELEMENT_SET_NO": 999, "REV_AT_EPOCH": 130, "BSTAR": -0.0047847573, "MEAN_MOTION_DOT": -0.01726863, "MEAN_MOTION_DDOT": 0.00083059086}, "tle": {"line1": "1 67056U 25294AC  25353.25002315 -.01726863  83059-3 -47848-2 0  9998", "line2": "2 67056  43.0000 142.3593 0001922 257.2556  50.9123 15.93011475  1306"}}, "geometry": {"type": "Point", "coordinates": [-3.6597912405326487, -29.729253032166877]}}, {"type": "Feature", "properties": {"norad_id": 67057, "name": "STARLINK-36141", "group": "last-30-days", "lat": -28.654692335859465, "lon": -5.545321769717488, "alt_km": 301.17719063919867, "timestamp": "2025-12-19T20:42:58.816288+00:00", "meta": {"OBJECT_NAME": "STARLINK-36141", "OBJECT_ID": "2025-294AD", "EPOCH": "2025-12-19T06:00:02.000160", "MEAN_MOTION": 15.92959006, "ECCENTRICITY": 0.00016717, "INCLINATION": 43, "RA_OF_ASC_NODE": 142.3646, "ARG_OF_PERICENTER": 259.367, "MEAN_ANOMALY": 46.9449, "EPHEMERIS_TYPE": 0, "CLASSIFICATION_TYPE": "U", "NORAD_CAT_ID": 67057, "ELEMENT_SET_NO": 999, "REV_AT_EPOCH": 130, "BSTAR": -0.0047979206, "MEAN_MOTION_DOT": -0.01726763, "MEAN_MOTION_DDOT": 0.00083007077}, "tle": {"line1": "1 67057U 25294AD  25353.25002315 -.01726763  83007-3 -47979-2 0  9996", "line2": "2 67057  43.0000 142.3646 0001671 259.3670  46.9449 15.92959006  1303"}}, "geometry": {"type": "Point", "coordinates": [-5.545321769717488, -28.654692335859465]}}, {"type": "Feature", "properties": {"norad_id": 67058, "name": "STARLINK-35767", "group": "last-30-days", "lat": -27.670544732445148, "lon": -7.20223390011388, "alt_km": 301.25205770086814, "timestamp": "2025-12-19T20:42:58.816298+00:00", "meta": {"OBJECT_NAME": "STARLINK-35767", "OBJECT_ID": "2025-294AE", "EPOCH": "2025-12-19T06:00:02.000160", "MEAN_MOTION": 15.92902391, "ECCENTRICITY": 0.00016986, "INCLINATION": 43.0004, "RA_OF_ASC_NODE": 142.3684, "ARG_OF_PERICENTER": 258.3883, "MEAN_ANOMALY": 46.2779, "EPHEMERIS_TYPE": 0, "CLASSIFICATION_TYPE": "U", "NORAD_CAT_ID": 67058, "ELEMENT_SET_NO": 999, "REV_AT_EPOCH": 130, "BSTAR": -0.0048004414, "MEAN_MOTION_DOT": -0.01722595, "MEAN_MOTION_DDOT": 0.00082590946}, "tle": {"line1": "1 67058U 25294AE  25353.25002315 -.01722595  82591-3 -48004-2 0  9993", "line2": "2 67058  43.0004 142.3684 0001698 258.3883  46.2779 15.92902391  1308"}}, "geometry": {"type": "Point", "coordinates": [-7.20223390011388, -27.670544732445148]}}, {"type": "Feature", "properties": {"norad_id": 67059, "name": "HULIANWANG DIGUI-119", "group": "last-30-days", "lat": 36.73868800803492, "lon": 20.96410119029091, "alt_km": 809.014865184763, "timestamp": "2025-12-19T20:42:58.816310+00:00", "meta": {"OBJECT_NAME": "HULIANWANG DIGUI-119", "OBJECT_ID": "2025-295A", "EPOCH": "2025-12-17T11:16:29.850816", "MEAN_MOTION": 14.25569756, "ECCENTRICITY": 0.00138963, "INCLINATION": 50.007, "RA_OF_ASC_NODE": 352.2731, "ARG_OF_PERICENTER": 264.5159, "MEAN_ANOMALY": 95.417, "EPHEMERIS_TYPE": 0, "CLASSIFICATION_TYPE": "U", "NORAD_CAT_ID": 67059, "ELEMENT_SET_NO": 999, "REV_AT_EPOCH": 79, "BSTAR": -9.003402e-06, "MEAN_MOTION_DOT": -1.82e-06, "MEAN_MOTION_DDOT": 0}, "tle": {"line1": "1 67059U 25295A   25351.46978994 -.00000182  00000+0 -90034-5 0  9995", "line2": "2 67059  50.0070 352.2731 0013896 264.5159  95.4170 14.25569756   795"}}, "geometry": {"type": "Point", "coordinates": [20.96410119029091, 36.73868800803492]}}, {"type": "Feature", "properties": {"norad_id": 67060, "name": "HULIANWANG DIGUI-120", "group": "last-30-days", "lat": 38.96884449662984, "lon": 24.927024935907955, "alt_km": 808.3622594541148, "timestamp": "2025-12-19T20:42:58.816321+00:00", "meta": {"OBJECT_NAME": "HULIANWANG DIGUI-120", "OBJECT_ID": "2025-295B", "EPOCH": "2025-12-15T17:12:24.401376", "MEAN_MOTION": 14.25706335, "ECCENTRICITY": 0.00132237, "INCLINATION": 50.005, "RA_OF_ASC_NODE": 359.6709, "ARG_OF_PERICENTER": 257.265, "MEAN_ANOMALY": 102.6786, "EPHEMERIS_TYPE": 0, "CLASSIFICATION_TYPE": "U", "NORAD_CAT_ID": 67060, "ELEMENT_SET_NO": 999, "REV_AT_EPOCH": 54, "BSTAR": 6.6896441e-05, "MEAN_MOTION_DOT": 0, "MEAN_MOTION_DDOT": 0}, "tle": {"line1": "1 67060U 25295B   25349.71694909  .00000000  00000+0  66896-4 0  9998", "line2": "2 67060  50.0050 359.6709 0013223 257.2650 102.6786 14.25706335   543"}}, "geometry": {"type": "Point", "coordinates": [24.927024935907955, 38.96884449662984]}}, {"type": "Feature", "properties": {"norad_id": 67061, "name": "HULIANWANG DIGUI-121", "group": "last-30-days", "lat": 39.2282099820624, "lon": 25.41629864022341, "alt_km": 808.4071446779917, "timestamp": "2025-12-19T20:42:58.816334+00:00", "meta": {"OBJECT_NAME": "HULIANWANG DIGUI-121", "OBJECT_ID": "2025-295C", "EPOCH": "2025-12-15T17:12:22.292352", "MEAN_MOTION": 14.25729079, "ECCENTRICITY": 0.00132682, "INCLINATION": 50.0012, "RA_OF_ASC_NODE": 359.6606, "ARG_OF_PERICENTER": 256.3366, "MEAN_ANOMALY": 103.6071, "EPHEMERIS_TYPE": 0, "CLASSIFICATION_TYPE": "U", "NORAD_CAT_ID": 67061, "ELEMENT_SET_NO": 999, "REV_AT_EPOCH": 54, "BSTAR": 6.6638352e-05, "MEAN_MOTION_DOT": -1e-08, "MEAN_MOTION_DDOT": 0}, "tle": {"line1": "1 67061U 25295C   25349.71692468 -.00000001  00000+0  66638-4 0  9993", "line2": "2 67061  50.0012 359.6606 0013268 256.3366 103.6071 14.25729079   549"}}, "geometry": {"type": "Point", "coordinates": [25.41629864022341, 39.2282099820624]}}, {"type": "Feature", "properties": {"norad_id": 67062, "name": "HULIANWANG DIGUI-122", "group": "last-30-days", "lat": 39.73509589613537, "lon": 26.410464003472814, "alt_km": 807.5138003295342, "timestamp": "2025-12-19T20:42:58.816346+00:00", "meta": {"OBJECT_NAME": "HULIANWANG DIGUI-122", "OBJECT_ID": "2025-295D", "EPOCH": "2025-12-19T06:59:40.435008", "MEAN_MOTION": 14.25755091, "ECCENTRICITY": 0.00131639, "INCLINATION": 50.0054, "RA_OF_ASC_NODE": 344.5736, "ARG_OF_PERICENTER": 276.2751, "MEAN_ANOMALY": 83.6663, "EPHEMERIS_TYPE": 0, "CLASSIFICATION_TYPE": "U", "NORAD_CAT_ID": 67062, "ELEMENT_SET_NO": 999, "REV_AT_EPOCH": 105, "BSTAR": 0.00012634679, "MEAN_MOTION_DOT": 1.42e-06, "MEAN_MOTION_DDOT": 0}, "tle": {"line1": "1 67062U 25295D   25353.29144022  .00000142  00000+0  12635-3 0  9992", "line2": "2 67062  50.0054 344.5736 0013163 276.2751  83.6663 14.25755091  1050"}}, "geometry": {"type": "Point", "coordinates": [26.410464003472814, 39.73509589613537]}}, {"type": "Feature", "properties": {"norad_id": 67063, "name": "HULIANWANG DIGUI-123", "group": "last-30-days", "lat": 41.719869682534544, "lon": 30.6101746719743, "alt_km": 806.8505274171321, "timestamp": "2025-12-19T20:42:58.816357+00:00", "meta": {"OBJECT_NAME": "HULIANWANG DIGUI-123", "OBJECT_ID": "2025-295E", "EPOCH": "2025-12-19T06:58:41.889504", "MEAN_MOTION": 14.25887937, "ECCENTRICITY": 0.00124788, "INCLINATION": 50.0061, "RA_OF_ASC_NODE": 344.5724, "ARG_OF_PERICENTER": 275.4776, "MEAN_ANOMALY": 84.4715, "EPHEMERIS_TYPE": 0, "CLASSIFICATION_TYPE": "U", "NORAD_CAT_ID": 67063, "ELEMENT_SET_NO": 999, "REV_AT_EPOCH": 105, "BSTAR": 0.00012851761, "MEAN_MOTION_DOT": 1.48e-06, "MEAN_MOTION_DDOT": 0}, "tle": {"line1": "1 67063U 25295E   25353.29076261  .00000148  00000+0  12852-3 0  9999", "line2": "2 67063  50.0061 344.5724 0012478 275.4776  84.4715 14.25887937  1054"}}, "geometry": {"type": "Point", "coordinates": [30.6101746719743, 41.719869682534544]}}, {"type": "Feature", "properties": {"norad_id": 67064, "name": "HULIANWANG DIGUI-124", "group": "last-30-days", "lat": 42.560341058560084, "lon": 32.57197174350978, "alt_km": 806.8928307081105, "timestamp": "2025-12-19T20:42:58.816367+00:00", "meta": {"OBJECT_NAME": "HULIANWANG DIGUI-124", "OBJECT_ID": "2025-295F", "EPOCH": "2025-12-18T00:41:45.177504", "MEAN_MOTION": 14.25947801, "ECCENTRICITY": 0.0012069, "INCLINATION": 50.0037, "RA_OF_ASC_NODE": 349.8867, "ARG_OF_PERICENTER": 265.6344, "MEAN_ANOMALY": 94.3191, "EPHEMERIS_TYPE": 0, "CLASSIFICATION_TYPE": "U", "NORAD_CAT_ID": 67064, "ELEMENT_SET_NO": 999, "REV_AT_EPOCH": 87, "BSTAR": -0.00021481981, "MEAN_MOTION_DOT": -6.76e-06, "MEAN_MOTION_DDOT": 0}, "tle": {"line1": "1 67064U 25295F   25352.02899511 -.00000676  00000+0 -21482-3 0  9998", "line2": "2 67064  50.0037 349.8867 0012069 265.6344  94.3191 14.25947801   876"}}, "geometry": {"type": "Point", "coordinates": [32.57197174350978, 42.560341058560084]}}, {"type": "Feature", "properties": {"norad_id": 67065, "name": "HULIANWANG DIGUI-125", "group": "last-30-days", "lat": 42.63392931472134, "lon": 32.75716483268162, "alt_km": 806.4872828353882, "timestamp": "2025-12-19T20:42:58.816377+00:00", "meta": {"OBJECT_NAME": "HULIANWANG DIGUI-125", "OBJECT_ID": "2025-295G", "EPOCH": "2025-12-19T06:58:13.139040", "MEAN_MOTION": 14.25953582, "ECCENTRICITY": 0.00122757, "INCLINATION": 50.0011, "RA_OF_ASC_NODE": 344.5559, "ARG_OF_PERICENTER": 276.1084, "MEAN_ANOMALY": 83.8431, "EPHEMERIS_TYPE": 0, "CLASSIFICATION_TYPE": "U", "NORAD_CAT_ID": 67065, "ELEMENT_SET_NO": 999, "REV_AT_EPOCH": 105, "BSTAR": 0.00012070897, "MEAN_MOTION_DOT": 1.3e-06, "MEAN_MOTION_DDOT": 0}, "tle": {"line1": "1 67065U 25295G   25353.29042985  .00000130  00000+0  12071-3 0  9991", "line2": "2 67065  50.0011 344.5559 0012275 276.1084  83.8431 14.25953582  1050"}}, "geometry": {"type": "Point", "coordinates": [32.75716483268162, 42.63392931472134]}}]}